EUTELSAT QUANTUM        
1 49056U 21069B   25323.17159207  .00000146  00000+0  00000+0 0  9998
2 49056   0.0289  35.1654 0003050 219.9834 272.8015  1.00272379 15825
EUTELSAT KONNECT VHTS   
1 53765U 22110A   25323.09116494  .00000037  00000+0  00000+0 0  9999
2 53765   0.0577 101.9708 0002513 111.8694 240.0978  1.00270241  4724
EUTELSAT HOTBIRD 13F    
1 54048U 22134A   25323.23602975  .00000107  00000+0  00000+0 0  9998
2 54048   0.0532 287.9679 0002114  77.0780 151.4490  1.00271974 11274
EUTELSAT HOTBIRD 13G    
1 54225U 22146A   25322.80801252  .00000107  00000+0  00000+0 0  9999
2 54225   0.0469 241.4800 0002096 293.0402 187.4893  1.00271842  5353
EUTELSAT 10B            
1 54259U 22157A   25323.17614453  .00000088  00000+0  00000+0 0  9992
2 54259   0.0583 100.1076 0000895  33.3133 358.4492  1.00272279 10923
EUTELSAT 36D            
1 59346U 24059A   25322.86572512  .00000175  00000+0  00000+0 0  9998
2 59346   0.0137 286.4661 0000286  79.6303  39.5895  1.00271633  6038
